[{"OBJECT_NAME":"SPARK 1","OBJECT_ID":"2016-081C","EPOCH":"2026-03-09T21:21:27.733248","MEAN_MOTION":14.59658645,"ECCENTRICITY":0.00224597,"INCLINATION":98.5453,"RA_OF_ASC_NODE":60.355,"ARG_OF_PERICENTER":266.7681,"MEAN_ANOMALY":93.0948,"EPHEMERIS_TYPE":0,"CLASSIFICATION_TYPE":"U","NORAD_CAT_ID":41900,"ELEMENT_SET_NO":999,"REV_AT_EPOCH":48978,"BSTAR":0.00021503269,"MEAN_MOTION_DOT":9.77e-6,"MEAN_MOTION_DDOT":0},{"OBJECT_NAME":"FENGYUN 1C DEB","OBJECT_ID":"1999-025FP","EPOCH":"2026-03-09T19:45:28.768032","MEAN_MOTION":14.37111905,"ECCENTRICITY":0.00877285,"INCLINATION":98.8802,"RA_OF_ASC_NODE":6.8439,"ARG_OF_PERICENTER":113.2748,"MEAN_ANOMALY":310.5886,"EPHEMERIS_TYPE":0,"CLASSIFICATION_TYPE":"U","NORAD_CAT_ID":29869,"ELEMENT_SET_NO":999,"REV_AT_EPOCH":66,"BSTAR":0.0003780382,"MEAN_MOTION_DOT":1.127e-5,"MEAN_MOTION_DDOT":0}]
